{
  "type": "FeatureCollection",
  "features": [
    {
      "type": "Feature",
      "properties": {
        "norad_id": 67066,
        "name": "HULIANWANG DIGUI 16H",
        "group": "last-30-days",
        "lat": 4.577754976918701,
        "lon": -174.27746953898952,
        "alt_km": 801.9879828677231,
        "timestamp": "2025-12-13T08:49:14.459138+00:00",
        "meta_object_name": "HULIANWANG DIGUI 16H",
        "meta_object_id": "2025-295H",
        "meta_epoch": "2025-12-12T05:06:20.088000",
        "meta_mean_motion": 14.26429655,
        "meta_eccentricity": 0.00114905,
        "meta_inclination": 50.0029,
        "meta_ra_of_asc_node": 14.4606,
        "meta_arg_of_pericenter": 248.6611,
        "meta_mean_anomaly": 111.3077,
        "meta_ephemeris_type": 0,
        "meta_classification_type": "U",
        "meta_norad_cat_id": 67066,
        "meta_element_set_no": 999,
        "meta_rev_at_epoch": 4,
        "meta_bstar": 2.4353642e-05,
        "meta_mean_motion_dot": -1.01e-06,
        "meta_mean_motion_ddot": 0,
        "tle_line1": "1 67066U 25295H   25346.21273250 -.00000101  00000+0  24354-4 0  9994",
        "tle_line2": "2 67066  50.0029  14.4606 0011490 248.6611 111.3077 14.26429655    45"
      },
      "geometry": {
        "type": "Point",
        "coordinates": [
          -174.27746953898952,
          4.577754976918701
        ]
      }
    },
    {
      "type": "Feature",
      "properties": {
        "norad_id": 67067,
        "name": "HULIANWANG DIGUI 16J",
        "group": "last-30-days",
        "lat": 4.711857359302792,
        "lon": -174.38142764197494,
        "alt_km": 802.9303402252262,
        "timestamp": "2025-12-13T08:49:14.459148+00:00",
        "meta_object_name": "HULIANWANG DIGUI 16J",
        "meta_object_id": "2025-295J",
        "meta_epoch": "2025-12-12T05:06:18.555264",
        "meta_mean_motion": 14.26361638,
        "meta_eccentricity": 0.00104901,
        "meta_inclination": 50.0044,
        "meta_ra_of_asc_node": 14.4694,
        "meta_arg_of_pericenter": 253.0387,
        "meta_mean_anomaly": 106.9378,
        "meta_ephemeris_type": 0,
        "meta_classification_type": "U",
        "meta_norad_cat_id": 67067,
        "meta_element_set_no": 999,
        "meta_rev_at_epoch": 4,
        "meta_bstar": 6.475965e-06,
        "meta_mean_motion_dot": -1.45e-06,
        "meta_mean_motion_ddot": 0,
        "tle_line1": "1 67067U 25295J   25346.21271476 -.00000145  00000+0  64760-5 0  9997",
        "tle_line2": "2 67067  50.0044  14.4694 0010490 253.0387 106.9378 14.26361638    49"
      },
      "geometry": {
        "type": "Point",
        "coordinates": [
          -174.38142764197494,
          4.711857359302792
        ]
      }
    }
  ]
}